1 20253U 89077A   26087.56975346 -.00000380  00000-0  00000+0 0  9992
2 20253  12.4438 351.6472 0008059 356.3586 168.8484  1.00275102259757
1 20776U 90079A   26087.83666556  .00000113  00000-0  00000+0 0  9999
2 20776  13.3658 350.3637 0003470   5.3383 165.0871  1.00272795130086
1 22787U 93056A   26086.97822622  .00000112  00000-0  00000-0 0  9993
2 22787  11.8670   3.9952 0008961 345.4330 216.7946  1.00274849117734
1 23467U 95003A   26086.59003209 -.00000032  00000-0  00000-0 0  9995
2 23467   9.6904  13.4957 0003733 357.2668 199.1647  1.00277049114131
1 23967U 96042A   26087.21017250 -.00000257  00000-0  00000+0 0  9993
2 23967  11.0397  17.5157 0003648  97.7057 114.4955  1.00239269108675
1 25639U 99009B   26086.55917612 -.00000001  00000-0  00000+0 0  9991
2 25639  12.0187   9.5384 0003209 290.0058 301.3497  0.99027553 50342
1 25967U 99063A   26087.18356588 -.00000202  00000-0  00000+0 0  9997
2 25967   9.8395  27.6333 0004609 316.7199 244.3963  1.00268796 96537
1 27168U 02001A   26086.02753088  .00000087  00000-0  00000+0 0  9996
2 27168  11.0833  22.3992 0099888   5.7119 185.3441  1.00278541 32137
1 28117U 03057A   26087.84492468 -.00000117  00000-0  00000+0 0  9991
2 28117   8.8860  34.2117 0003120 316.2516 215.3926  1.00272268 81644
1 30794U 07007B   26087.84882471 -.00000287  00000-0  00000+0 0  9999
2 30794   5.0968  74.7030 0003932 302.8669 209.4701  1.00273826 69899
1 32294U 07056B   26087.69230066  .00000124  00000-0  00000+0 0  9999
2 32294   5.0478  74.4483 0003962 289.6593  96.3205  1.00269489 67397
1 35943U 09054B   26087.86433601  .00000005  00000-0  00000+0 0  9990
2 35943   0.0457  83.9865 0003578 293.6665 182.7902  1.00269873 60507
1 36582U 10021B   26087.83030751  .00000069  00000-0  00000+0 0  9992
2 36582   0.0162 162.2336 0002683 217.4282 118.6607  1.00273459 58152
1 38098U 12011A   26087.84423134 -.00000078  00000-0  00000+0 0  9990
2 38098   0.0229 113.2720 0001715 254.6822 194.3061  1.00271379  6383
1 39034U 12075A   26087.76908767  .00000080  00000-0  00000+0 0  9994
2 39034   0.0694   5.5820 0003673 356.0239 154.1657  1.00272592 48354
1 40296U 14069A   26086.42573530  .00000111  00000-0  00000+0 0  9994
2 40296  63.4571 223.4310 6678556 271.0900  19.1383  2.00582684 83591
1 44453U 19046A   26086.96613987 -.00000047  00000-0  00000+0 0  9992
2 44453  63.0562  61.1800 7050314 274.6323  15.0194  2.00617758 48713
1 45254U 20015A   26087.21133409 -.00000011  00000-0  00000+0 0  9996
2 45254  65.5243 327.6147 6884561 279.2662  14.7597  2.00603088 44669
1 52145U 22030A   26087.22054442  .00000222  00000-0  00000+0 0  9995
2 52145  62.6701 149.4655 6763760 272.9242  17.7942  2.00614885 29407
1 26635U 00080A   21013.46269075 0.00000000  00000-0  00000-0 0    09
2 26635   9.2857  29.8038 0014383 186.3086 173.6859  1.00273100    09
1 34810U 09020A   25358.93258989 0.00000000  00000-0  00000-0 0    06
2 34810   2.7881  81.1408 0004972 246.2147 113.7417  1.00270000    08
1 40614U 15022B   25359.93496764 0.00000000  00000-0  00000-0 0    00
2 40614   0.0160 108.2839 0003453 352.8976   7.0980  1.00270000    04
